[
  {
    "name": "KUIPER-00103",
    "noradId": "65141",
    "line1": "1 65141U 25171K   26196.66674763  .00000131  00000+0  46113-4 0  9995",
    "line2": "2 65141  51.8994 324.6401 0000304  97.3982 262.7015 14.79931744 51660"
  },
  {
    "name": "KUIPER-00104",
    "noradId": "65142",
    "line1": "1 65142U 25171L   26196.54517126  .00001675  00000+0  24869-3 0  9999",
    "line2": "2 65142  51.9030 312.6788 0000377  91.3661 268.7344 14.79932606 51823"
  },
  {
    "name": "KUIPER-00105",
    "noradId": "65143",
    "line1": "1 65143U 25171M   26196.77345031  .00001721  00000+0  25470-3 0  9990",
    "line2": "2 65143  51.9016 319.2701 0000471 109.0099 251.0914 14.79932378 51759"
  },
  {
    "name": "KUIPER-00106",
    "noradId": "65144",
    "line1": "1 65144U 25171N   26196.48404740  .00001548  00000+0  23205-3 0  9993",
    "line2": "2 65144  51.9028 299.3128 0000340 107.5628 252.5371 14.79931437 52018"
  },
  {
    "name": "KUIPER-00107",
    "noradId": "65145",
    "line1": "1 65145U 25171P   26196.52219830  .00001586  00000+0  23703-3 0  9998",
    "line2": "2 65145  51.9015 302.8225 0000416 112.8401 247.2606 14.79934708 51964"
  },
  {
    "name": "KUIPER-00108",
    "noradId": "65146",
    "line1": "1 65146U 25171Q   26196.67754273  .00001690  00000+0  25062-3 0  9996",
    "line2": "2 65146  51.9032 314.6729 0000387  99.8320 260.2686 14.79935074 51819"
  },
  {
    "name": "KUIPER-00109",
    "noradId": "65147",
    "line1": "1 65147U 25171R   26196.51410640  .00002138  00000+0  30947-3 0  9993",
    "line2": "2 65147  51.9044 310.3382 0000655 135.3766 224.7249 14.79926596 51852"
  },
  {
    "name": "KUIPER-00110",
    "noradId": "65148",
    "line1": "1 65148U 25171S   26196.53438812  .00001692  00000+0  25079-3 0  9991",
    "line2": "2 65148  51.9015 322.8063 0000402 115.7776 244.3228 14.79940770 51673"
  },
  {
    "name": "KUIPER-00111",
    "noradId": "65149",
    "line1": "1 65149U 25171T   26196.42769263  .00001621  00000+0  24154-3 0  9992",
    "line2": "2 65149  51.8991 328.1558 0000334  97.0065 263.0935 14.79929851 51592"
  },
  {
    "name": "KUIPER-00112",
    "noradId": "65150",
    "line1": "1 65150U 25171U   26196.54787793  .00001514  00000+0  22756-3 0  9992",
    "line2": "2 65150  51.9023 310.2370 0000354 107.9205 252.1796 14.79934785 51859"
  },
  {
    "name": "KUIPER-00114",
    "noradId": "65151",
    "line1": "1 65151U 25171V   26196.35747619  .00000980  00000+0  15755-3 0  9992",
    "line2": "2 65151  51.9011 331.0503 0000483  73.5426 286.5590 14.79932351 51548"
  },
  {
    "name": "KUIPER-00115",
    "noradId": "65152",
    "line1": "1 65152U 25171W   26196.36556214  .00001647  00000+0  24490-3 0  9990",
    "line2": "2 65152  51.9031 323.5161 0000323 102.6033 257.4966 14.79938674 51658"
  },
  {
    "name": "KUIPER-00116",
    "noradId": "65153",
    "line1": "1 65153U 25171X   26196.66402134  .00006373  00000+0  86330-3 0  9997",
    "line2": "2 65153  51.9025 327.2295 0000609 106.1491 253.9538 14.79974820 51621"
  },
  {
    "name": "KUIPER-00118",
    "noradId": "65154",
    "line1": "1 65154U 25171Y   26196.79640247  .00001673  00000+0  24851-3 0  9999",
    "line2": "2 65154  51.9013 329.0949 0000559 101.9691 258.1335 14.79923647 51616"
  },
  {
    "name": "KUIPER-00119",
    "noradId": "65155",
    "line1": "1 65155U 25171Z   26196.74238325  .00001684  00000+0  24981-3 0  9991",
    "line2": "2 65155  51.9025 316.9289 0000180  10.7176 349.3791 14.79934185 51772"
  },
  {
    "name": "KUIPER-00120",
    "noradId": "65762",
    "line1": "1 65762U 25217A   26196.43897115  .00001164  00000+0  18162-3 0  9997",
    "line2": "2 65762  51.8985 208.1486 0000405  81.0470 279.0538 14.79932983 43659"
  },
  {
    "name": "KUIPER-00132",
    "noradId": "65763",
    "line1": "1 65763U 25217B   26195.99588459  .00027594  00000+0  61534-3 0  9992",
    "line2": "2 65763  51.8562 103.6690 0006957  64.7384 295.4326 15.43346325 45062"
  },
  {
    "name": "KUIPER-00133",
    "noradId": "65764",
    "line1": "1 65764U 25217C   26196.33769034  .00001027  00000+0  16363-3 0  9995",
    "line2": "2 65764  51.9033 208.7063 0000422  74.1302 285.9707 14.79933463 43646"
  },
  {
    "name": "KUIPER-00139",
    "noradId": "65765",
    "line1": "1 65765U 25217D   26196.64283491  .00001278  00000+0  19656-3 0  9994",
    "line2": "2 65765  51.8977 174.8140 0000699  70.8560 289.2478 14.79938093 44149"
  },
  {
    "name": "KUIPER-00142",
    "noradId": "65766",
    "line1": "1 65766U 25217E   26196.39027841  .00001075  00000+0  16995-3 0  9990",
    "line2": "2 65766  51.8985 190.8913 0000506  67.3161 292.7855 14.79939387 43896"
  },
  {
    "name": "KUIPER-00145",
    "noradId": "65767",
    "line1": "1 65767U 25217F   26196.18507673  .00001233  00000+0  19077-3 0  9994",
    "line2": "2 65767  51.8998 194.3218 0000566  72.5232 287.5793 14.79918320 43821"
  },
  {
    "name": "KUIPER-00147",
    "noradId": "65768",
    "line1": "1 65768U 25217G   26196.41866237  .00001789  00000+0  26352-3 0  9995",
    "line2": "2 65768  51.8951 195.7633 0001023 127.8204 232.2851 14.79945310 43820"
  },
  {
    "name": "KUIPER-00148",
    "noradId": "65769",
    "line1": "1 65769U 25217H   26196.83335647  .00088802  00000+0  11636-1 0  9996",
    "line2": "2 65769  51.9029 176.4447 0001316  89.5947 221.5229 14.79528138  4956"
  },
  {
    "name": "KUIPER-00150",
    "noradId": "65770",
    "line1": "1 65770U 25217J   26196.27284421  .00001092  00000+0  17224-3 0  9996",
    "line2": "2 65770  51.9001 206.4476 0000403  65.5754 294.5250 14.79934407 43665"
  },
  {
    "name": "KUIPER-00151",
    "noradId": "65771",
    "line1": "1 65771U 25217K   26196.21336706  .00001089  00000+0  17174-3 0  9995",
    "line2": "2 65771  51.9007 199.2075 0000409  72.5559 287.5448 14.79940229 43764"
  },
  {
    "name": "KUIPER-00152",
    "noradId": "65772",
    "line1": "1 65772U 25217L   26196.66585032  .00001185  00000+0  18440-3 0  9997",
    "line2": "2 65772  51.8999 184.6916 0000565  66.5485 293.5537 14.79930492 44005"
  },
  {
    "name": "KUIPER-00153",
    "noradId": "65773",
    "line1": "1 65773U 25217M   26196.33355632 -.00000260  00000+0 -50784-5 0  9997",
    "line2": "2 65773  51.9020 181.2356 0000631  71.6363 288.4668 14.79930805 44027"
  },
  {
    "name": "KUIPER-00155",
    "noradId": "65774",
    "line1": "1 65774U 25217N   26196.22816906  .00001462  00000+0  22068-3 0  9997",
    "line2": "2 65774  51.9017 154.1648 0000701  76.9558 283.1482 14.79933982 44394"
  },
  {
    "name": "KUIPER-00156",
    "noradId": "65775",
    "line1": "1 65775U 25217P   26196.36736041  .00001129  00000+0  17711-3 0  9993",
    "line2": "2 65775  51.9015 181.0682 0000397  83.8694 276.2313 14.79929548 44028"
  },
  {
    "name": "KUIPER-00163",
    "noradId": "65777",
    "line1": "1 65777U 25217R   26196.80498981  .00542018  15291-3  71207-3 0  9991",
    "line2": "2 65777  51.8729 114.5477 0001869 129.3609 230.7573 16.06284588 44978"
  },
  {
    "name": "KUIPER-00165",
    "noradId": "65778",
    "line1": "1 65778U 25217S   26196.69416253  .00000421  00000+0  84207-4 0  9991",
    "line2": "2 65778  51.9001 189.5678 0000510  80.6294 279.4726 14.79933047 43933"
  },
  {
    "name": "KUIPER-00166",
    "noradId": "65779",
    "line1": "1 65779U 25217T   26196.20122240  .00001183  00000+0  18417-3 0  9994",
    "line2": "2 65779  51.9019 179.2972 0000584  63.1847 296.9175 14.79930762 44032"
  },
  {
    "name": "KUIPER-00167",
    "noradId": "65780",
    "line1": "1 65780U 25217U   26196.48076515  .00001158  00000+0  18089-3 0  9996",
    "line2": "2 65780  51.8950 200.4211 0000532  65.0802 295.0215 14.79935392 43763"
  },
  {
    "name": "KUIPER-00168",
    "noradId": "65781",
    "line1": "1 65781U 25217V   26196.70230917  .00001248  00000+0  19265-3 0  9997",
    "line2": "2 65781  51.8998 182.0369 0000562  64.5567 295.5453 14.79929245 44041"
  },
  {
    "name": "KUIPER-00169",
    "noradId": "65782",
    "line1": "1 65782U 25217W   26196.69688326  .00001001  00000+0  16024-3 0  9994",
    "line2": "2 65782  51.9012 187.0689 0000509 100.8907 259.2113 14.79940196 43972"
  },
  {
    "name": "KUIPER-00170",
    "noradId": "65783",
    "line1": "1 65783U 25217X   26196.69150950  .00001199  00000+0  18630-3 0  9995",
    "line2": "2 65783  51.8982 192.0516 0000496  68.2160 291.8855 14.79929035 43903"
  },
  {
    "name": "KUIPER-00172",
    "noradId": "65785",
    "line1": "1 65785U 25217Z   26196.67661066  .00001278  00000+0  19666-3 0  9998",
    "line2": "2 65785  51.8988 174.6467 0000847  89.7352 270.3707 14.79937021 44142"
  },
  {
    "name": "KUIPER-00173",
    "noradId": "65786",
    "line1": "1 65786U 25217AA  26196.39295289 -.00001794  00000+0 -20626-3 0  9991",
    "line2": "2 65786  51.8994 188.4087 0000416 105.4899 254.6109 14.79950081 43922"
  },
  {
    "name": "KUIPER-00174",
    "noradId": "65787",
    "line1": "1 65787U 25217AB  26196.66849654 -.00000659  00000+0 -57513-4 0  9998",
    "line2": "2 65787  51.9006 182.2396 0000562  61.0589 299.0429 14.79928651 44037"
  },
  {
    "name": "KUIPER-00176",
    "noradId": "65788",
    "line1": "1 65788U 25217AC  26196.38221665  .00001046  00000+0  16616-3 0  9991",
    "line2": "2 65788  51.8990 198.4404 0000443  68.7259 291.3751 14.79926168 43789"
  },
  {
    "name": "KUIPER-00101",
    "noradId": "65947",
    "line1": "1 65947U 25228A   26196.25922287  .00001488  00000+0  22411-3 0  9994",
    "line2": "2 65947  51.8974 156.4414 0000637  78.7653 281.3381 14.79929914 42124"
  },
  {
    "name": "KUIPER-00113",
    "noradId": "65948",
    "line1": "1 65948U 25228B   26196.83862255  .00000280  00000+0  65714-4 0  9990",
    "line2": "2 65948  51.8993 148.8999 0000870  59.2289 300.8759 14.79931953 42275"
  },
  {
    "name": "KUIPER-00117",
    "noradId": "65949",
    "line1": "1 65949U 25228C   26196.26192550  .00001432  00000+0  21677-3 0  9991",
    "line2": "2 65949  51.8977 153.9495 0000755  70.8404 289.2640 14.79937600 42157"
  }
]